{
  "type": "FeatureCollection",
  "features": [
    {
      "type": "Feature",
      "properties": {
        "norad_id": 44334,
        "name": "EUTELSAT 7C",
        "group": "eutelsat",
        "lat": 0.038496050600203675,
        "lon": -33.9491844641949,
        "alt_km": 35784.30861383186,
        "timestamp": "2025-12-11T15:53:39.213850+00:00",
        "meta_object_name": "EUTELSAT 7C",
        "meta_object_id": "2019-034B",
        "meta_epoch": "2025-12-11T04:59:03.776640",
        "meta_mean_motion": 1.00271265,
        "meta_eccentricity": 0.00033171,
        "meta_inclination": 0.0724,
        "meta_ra_of_asc_node": 179.7249,
        "meta_arg_of_pericenter": 63.8945,
        "meta_mean_anomaly": 278.3029,
        "meta_ephemeris_type": 0,
        "meta_classification_type": "U",
        "meta_norad_cat_id": 44334,
        "meta_element_set_no": 999,
        "meta_rev_at_epoch": 495,
        "meta_bstar": 0,
        "meta_mean_motion_dot": 5.4e-07,
        "meta_mean_motion_ddot": 0,
        "tle_line1": "1 44334U 19034B   25345.20768260  .00000054  00000+0  00000+0 0  9992",
        "tle_line2": "2 44334   0.0724 179.7249 0003317  63.8945 278.3029  1.00271265  4954"
      },
      "geometry": {
        "type": "Point",
        "coordinates": [
          -33.9491844641949,
          0.038496050600203675
        ]
      }
    },
    {
      "type": "Feature",
      "properties": {
        "norad_id": 44624,
        "name": "EUTELSAT 5 WEST B",
        "group": "eutelsat",
        "lat": -0.0408405791834311,
        "lon": -45.94115567244149,
        "alt_km": 35777.42912409113,
        "timestamp": "2025-12-11T15:53:39.213862+00:00",
        "meta_object_name": "EUTELSAT 5 WEST B",
        "meta_object_id": "2019-067A",
        "meta_epoch": "2025-12-11T04:55:34.110624",
        "meta_mean_motion": 1.00271563,
        "meta_eccentricity": 0.00034195,
        "meta_inclination": 0.063,
        "meta_ra_of_asc_node": 345.9064,
        "meta_arg_of_pericenter": 275.158,
        "meta_mean_anomaly": 247.9961,
        "meta_ephemeris_type": 0,
        "meta_classification_type": "U",
        "meta_norad_cat_id": 44624,
        "meta_element_set_no": 999,
        "meta_rev_at_epoch": 2255,
        "meta_bstar": 0,
        "meta_mean_motion_dot": -3.6e-07,
        "meta_mean_motion_ddot": 0,
        "tle_line1": "1 44624U 19067A   25345.20525591 -.00000036  00000+0  00000+0 0  9999",
        "tle_line2": "2 44624   0.0630 345.9064 0003419 275.1580 247.9961  1.00271563 22554"
      },
      "geometry": {
        "type": "Point",
        "coordinates": [
          -45.94115567244149,
          -0.0408405791834311
        ]
      }
    },
    {
      "type": "Feature",
      "properties": {
        "norad_id": 45027,
        "name": "EUTELSAT KONNECT",
        "group": "eutelsat",
        "lat": -0.05688229338554008,
        "lon": -33.767850678761974,
        "alt_km": 35781.55285577108,
        "timestamp": "2025-12-11T15:53:39.213874+00:00",
        "meta_object_name": "EUTELSAT KONNECT",
        "meta_object_id": "2020-005B",
        "meta_epoch": "2025-12-11T04:59:03.776640",
        "meta_mean_motion": 1.00269339,
        "meta_eccentricity": 0.00016109,
        "meta_inclination": 0.0696,
        "meta_ra_of_asc_node": 96.3252,
        "meta_arg_of_pericenter": 189.7982,
        "meta_mean_anomaly": 236.0092,
        "meta_ephemeris_type": 0,
        "meta_classification_type": "U",
        "meta_norad_cat_id": 45027,
        "meta_element_set_no": 999,
        "meta_rev_at_epoch": 2245,
        "meta_bstar": 0,
        "meta_mean_motion_dot": 5.5e-07,
        "meta_mean_motion_ddot": 0,
        "tle_line1": "1 45027U 20005B   25345.20768260  .00000055  00000+0  00000+0 0  9993",
        "tle_line2": "2 45027   0.0696  96.3252 0001610 189.7982 236.0092  1.00269339 22458"
      },
      "geometry": {
        "type": "Point",
        "coordinates": [
          -33.767850678761974,
          -0.05688229338554008
        ]
      }
    },
    {
      "type": "Feature",
      "properties": {
        "norad_id": 49056,
        "name": "EUTELSAT QUANTUM",
        "group": "eutelsat",
        "lat": -0.0012246583836909887,
        "lon": 6.769349461723505,
        "alt_km": 35787.0313265642,
        "timestamp": "2025-12-11T15:53:39.213885+00:00",
        "meta_object_name": "EUTELSAT QUANTUM",
        "meta_object_id": "2021-069B",
        "meta_epoch": "2025-12-11T03:27:57.502656",
        "meta_mean_motion": 1.00271833,
        "meta_eccentricity": 0.00036886,
        "meta_inclination": 0.0182,
        "meta_ra_of_asc_node": 27.6209,
        "meta_arg_of_pericenter": 245.4753,
        "meta_mean_anomaly": 266.7006,
        "meta_ephemeris_type": 0,
        "meta_classification_type": "U",
        "meta_norad_cat_id": 49056,
        "meta_element_set_no": 999,
        "meta_rev_at_epoch": 1604,
        "meta_bstar": 0,
        "meta_mean_motion_dot": 1.32e-06,
        "meta_mean_motion_ddot": 0,
        "tle_line1": "1 49056U 21069B   25345.14441554  .00000132  00000+0  00000+0 0  9993",
        "tle_line2": "2 49056   0.0182  27.6209 0003688 245.4753 266.7006  1.00271833 16041"
      },
      "geometry": {
        "type": "Point",
        "coordinates": [
          6.769349461723505,
          -0.0012246583836909887
        ]
      }
    },
    {
      "type": "Feature",
      "properties": {
        "norad_id": 53765,
        "name": "EUTELSAT KONNECT VHTS",
        "group": "eutelsat",
        "lat": -0.050018555245007056,
        "lon": -38.23964168195065,
        "alt_km": 35784.45332077743,
        "timestamp": "2025-12-11T15:53:39.213896+00:00",
        "meta_object_name": "EUTELSAT KONNECT VHTS",
        "meta_object_id": "2022-110A",
        "meta_epoch": "2025-12-11T03:15:06.233184",
        "meta_mean_motion": 1.00271355,
        "meta_eccentricity": 0.00024632,
        "meta_inclination": 0.0669,
        "meta_ra_of_asc_node": 100.3786,
        "meta_arg_of_pericenter": 140.773,
        "meta_mean_anomaly": 250.4291,
        "meta_ephemeris_type": 0,
        "meta_classification_type": "U",
        "meta_norad_cat_id": 53765,
        "meta_element_set_no": 999,
        "meta_rev_at_epoch": 494,
        "meta_bstar": 0,
        "meta_mean_motion_dot": 2.3e-07,
        "meta_mean_motion_ddot": 0,
        "tle_line1": "1 53765U 22110A   25345.13548881  .00000023  00000+0  00000+0 0  9992",
        "tle_line2": "2 53765   0.0669 100.3786 0002463 140.7730 250.4291  1.00271355  4945"
      },
      "geometry": {
        "type": "Point",
        "coordinates": [
          -38.23964168195065,
          -0.050018555245007056
        ]
      }
    },
    {
      "type": "Feature",
      "properties": {
        "norad_id": 54048,
        "name": "EUTELSAT HOTBIRD 13F",
        "group": "eutelsat",
        "lat": 0.03092825684011737,
        "lon": -27.973624953401515,
        "alt_km": 35778.46818657907,
        "timestamp": "2025-12-11T15:53:39.213908+00:00",
        "meta_object_name": "EUTELSAT HOTBIRD 13F",
        "meta_object_id": "2022-134A",
        "meta_epoch": "2025-12-11T05:00:48.610080",
        "meta_mean_motion": 1.0026911,
        "meta_eccentricity": 0.00021786,
        "meta_inclination": 0.0498,
        "meta_ra_of_asc_node": 292.084,
        "meta_arg_of_pericenter": 64.4691,
        "meta_mean_anomaly": 171.8346,
        "meta_ephemeris_type": 0,
        "meta_classification_type": "U",
        "meta_norad_cat_id": 54048,
        "meta_element_set_no": 999,
        "meta_rev_at_epoch": 1149,
        "meta_bstar": 0,
        "meta_mean_motion_dot": 9.3e-07,
        "meta_mean_motion_ddot": 0,
        "tle_line1": "1 54048U 22134A   25345.20889595  .00000093  00000+0  00000+0 0  9998",
        "tle_line2": "2 54048   0.0498 292.0840 0002178  64.4691 171.8346  1.00269110 11492"
      },
      "geometry": {
        "type": "Point",
        "coordinates": [
          -27.973624953401515,
          0.03092825684011737
        ]
      }
    },
    {
      "type": "Feature",
      "properties": {
        "norad_id": 54225,
        "name": "EUTELSAT HOTBIRD 13G",
        "group": "eutelsat",
        "lat": 0.04296071476410622,
        "lon": -27.97007063823704,
        "alt_km": 35793.091725964354,
        "timestamp": "2025-12-11T15:53:39.213920+00:00",
        "meta_object_name": "EUTELSAT HOTBIRD 13G",
        "meta_object_id": "2022-146A",
        "meta_epoch": "2025-12-11T05:00:48.610080",
        "meta_mean_motion": 1.00270683,
        "meta_eccentricity": 0.00018799,
        "meta_inclination": 0.0497,
        "meta_ra_of_asc_node": 236.0046,
        "meta_arg_of_pericenter": 307.1707,
        "meta_mean_anomaly": 345.1918,
        "meta_ephemeris_type": 0,
        "meta_classification_type": "U",
        "meta_norad_cat_id": 54225,
        "meta_element_set_no": 999,
        "meta_rev_at_epoch": 558,
        "meta_bstar": 0,
        "meta_mean_motion_dot": 9.3e-07,
        "meta_mean_motion_ddot": 0,
        "tle_line1": "1 54225U 22146A   25345.20889595  .00000093  00000+0  00000+0 0  9998",
        "tle_line2": "2 54225   0.0497 236.0046 0001879 307.1707 345.1918  1.00270683  5587"
      },
      "geometry": {
        "type": "Point",
        "coordinates": [
          -27.97007063823704,
          0.04296071476410622
        ]
      }
    }
  ]
}